IRIDIUM 26              
1 24903U 97043A   25326.71859366  .00000451  00000+0  14458-3 0  9998
2 24903  86.3976  43.9755 0001943  94.4527 265.6892 14.37304773479513
IRIDIUM 22              
1 24907U 97043E   25326.78015399  .00000405  00000+0  13233-3 0  9998
2 24907  86.3979  47.6256 0002086  97.9124 262.2310 14.36101053479532
DUMMY MASS 1            
1 24925U 97048A   25326.75434206  .00000513  00000+0  53981-4 0  9997
2 24925  86.3353  61.9527 0004813 319.9947  40.0922 14.87156372528691
DUMMY MASS 2            
1 24926U 97048B   25326.74296925  .00000517  00000+0  54715-4 0  9991
2 24926  86.3353  63.5953 0005984 332.8104  27.2807 14.86906999528463
IRIDIUM 29              
1 24944U 97051A   25326.74574225  .00000534  00000+0  17507-3 0  9993
2 24944  86.3949  77.3373 0002252  97.0920 263.0533 14.36636057476035
IRIDIUM 33              
1 24946U 97051C   25326.76393247  .00000402  00000+0  13445-3 0  9991
2 24946  86.3865  76.6052 0005819 282.9706  77.0840 14.35015786475480
IRIDIUM 28              
1 24948U 97051E   25326.75847163  .00000493  00000+0  15818-3 0  9999
2 24948  86.3957  74.7564 0001533  92.0536 268.0837 14.37537008476624
IRIDIUM 36              
1 24967U 97056C   25326.76662603  .00000495  00000+0  15787-3 0  9997
2 24967  86.3943 106.3829 0001847  97.1185 263.0223 14.37757168475006
